satname,norad_id,inclination_deg,eccentricity,mean_motion_rev_per_day,perigee_km,apogee_km,l1,l2
STARLINK-1008,44714,53.1092,0.0001381,15.21105214,501.5554578028641,503.45589130957705,1 44714U 19074B   26021.58335647  .00039674  00000+0  17663-2 0  9996,2 44714  53.1092  37.5435 0001381  68.7898 148.2864 15.21105214  5839
STARLINK-1012,44718,53.1254,0.0001695,15.23138688,495.2150559071515,497.5455172673046,1 44718U 19074F   26021.58335647  .01699210  00000+0  65075-1 0  9998,2 44718  53.1254  37.5388 0001695  62.1397 277.1812 15.23138688  5838
STARLINK-1017,44723,53.0464,7.55e-05,15.20275931,504.4879470595324,505.5273018978278,1 44723U 19074L   26021.39872668  .00024612  00000+0  11304-2 0  9996,2 44723  53.0464  28.9944 0000755 164.1662 195.9357 15.20275931341768
STARLINK-1019,44724,53.0513,0.0010125,15.66357598,362.5053301329999,376.1689652821078,1 44724U 19074M   26021.58335647  .00091938  00000+0  86378-3 0  9998,2 44724  53.0513  11.0842 0010125  29.6042  50.3622 15.66357598  5949
STARLINK-1020,44725,53.0535,0.0001357,15.06391485,546.2978819690989,548.1774286505488,1 44725U 19074N   26021.37932694 -.00001672  00000+0 -93423-4 0  9999,2 44725  53.0535  59.0040 0001357 100.6096 259.5046 15.06391485341338
STARLINK-1031,44736,53.0458,0.0006306,15.7136681,350.74385094315403,359.2356704137219,1 44736U 19074Z   26021.58335647  .00048512  00000+0  37572-3 0  9993,2 44736  53.0458 356.7350 0006306  64.0800 195.8256 15.71366810  5956
STARLINK-1036,44741,53.0539,0.0001288,15.45777883,428.21660419645286,429.97014674117327,1 44741U 19074AE  26021.58335647  .00072155  00000+0  14617-2 0  9993,2 44741  53.0539  54.8471 0001288  80.3910   7.7703 15.45777883  5831
STARLINK-1039,44744,53.0471,0.0003389,15.1761188,510.72506363029606,515.3959172893301,1 44744U 19074AH  26021.45695223  .00029171  00000+0  14427-2 0  9990,2 44744  53.0471  71.5121 0003389  50.7118 309.4176 15.17611880341171
STARLINK-1042,44747,53.0468,0.0003681,15.47150683,422.56177831155674,427.5702963876529,1 44747U 19074AL  26020.57056389  .00054251  00000+0  10527-2 0  9993,2 44747  53.0468 325.2100 0003681  54.0150 306.1197 15.47150683342613
STARLINK-1043,44748,53.053,0.0002411,15.4818701,420.3902216861525,423.6692620890908,1 44748U 19074AM  26021.38907926  .00050548  00000+0  94732-3 0  9992,2 44748  53.0530  62.1139 0002411 344.8071  15.2863 15.48187010341303
STARLINK-1046,44751,53.0552,0.0002568,15.38234904,449.57497726423935,453.0825908909419,1 44751U 19074AQ  26021.40900027  .00057237  00000+0  14961-2 0  9991,2 44751  53.0552  74.7982 0002568  31.0632 329.0523 15.38234904341120
STARLINK-1047,44752,53.0712,0.0004733,15.31370163,468.48135970689236,474.96543756023857,1 44752U 19074AR  26021.32952436  .00017336  00000+0  57482-3 0  9996,2 44752  53.0712   7.0549 0004733  72.1601 287.9915 15.31370163342089
STARLINK-1048,44753,53.0551,0.0001999,15.41467836,440.41314935261835,443.1397507499487,1 44753U 19074AS  26021.27433986  .00032589  00000+0  77265-3 0  9993,2 44753  53.0551  35.8068 0001999  58.6693 301.4506 15.41467836341652
STARLINK-1053,44758,53.0359,0.0003462,15.74910778,342.5575747149187,347.2125952065453,1 44758U 19074AX  26021.58335647  .00175833  00000+0  11434-2 0  9992,2 44758  53.0359 320.6796 0003462  95.4756  62.3033 15.74910778  5976
STARLINK-1060,44765,53.0417,0.0002611,15.94184289,288.8470437957267,292.3294521202097,1 44765U 19074BE  26021.58335647  .00414603  78898-4  10962-2 0  9991,2 44765  53.0417   1.4207 0002611  55.8381 137.1169 15.94184289  5859
STARLINK-1063,44768,53.1014,0.0001088,15.17493138,512.6701696111386,514.1697724080304,1 44768U 19074BH  26021.58335647  .00942847  00000+0  42895-1 0  9994,2 44768  53.1014  77.8491 0001088 113.8679  16.8783 15.17493138  5676
STARLINK-1067,44771,53.0548,0.0004058,15.45311925,427.6987670883864,433.2246257904171,1 44771U 19074BL  26021.41844122  .00041048  00000+0  85193-3 0  9996,2 44771  53.0548  71.5634 0004058  38.3391 321.7902 15.45311925341176
STARLINK-1068,44772,53.0601,0.0001594,15.49524898,417.0315973513216,419.19824246338885,1 44772U 19074BM  26021.58335647  .00883367  00000+0  14523-1 0  9997,2 44772  53.0601  48.6177 0001594  75.4624 193.9844 15.49524898  5920
STARLINK-1112,44925,53.0421,0.0001563,15.78969113,332.3112685522956,334.4092826006399,1 44925U 20001M   26021.58335647  .00188061  00000+0  10203-2 0  9990,2 44925  53.0421 121.6135 0001563 259.3611  24.9229 15.78969113  6028
STARLINK-1114,44927,53.0537,3.24e-05,15.41919134,440.22473468208045,440.66657883823973,1 44927U 20001P   26021.49135303  .00090434  00000+0  20796-2 0  9993,2 44927  53.0537 194.5189 0000324 209.0673 151.0314 15.41919134332791
STARLINK-1123,44930,53.0536,0.0001398,15.06405786,546.2256634890764,548.1619859876728,1 44930U 20001S   26021.21897463  .00000675  00000+0  64201-4 0  9998,2 44930  53.0536 199.7229 0001398  87.3679 272.7470 15.06405786332698
STARLINK-1144,44933,53.0338,0.0007088,15.9322326,288.5409929581392,297.99837907623714,1 44933U 20001V   26021.58335647  .00489829  10578-3  13587-2 0  9998,2 44933  53.0338  92.7693 0007088 355.6464 259.1050 15.93223260  5885
STARLINK-1094,44941,53.0923,0.0001846,15.15432901,518.3912883300691,520.9379566890993,1 44941U 20001AD  26021.58335647  .01317826  00000+0  63514-1 0  9994,2 44941  53.0923 177.9305 0001846 110.5128  84.9958 15.15432901  5835
STARLINK-1122,44949,53.0929,0.0001562,15.15591726,518.105353692773,520.2600763717492,1 44949U 20001AM  26021.58335647  .01241784  00000+0  59867-1 0  9997,2 44949  53.0929 177.9205 0001562  73.9240   5.5403 15.15591726  5789
STARLINK-1080,44961,53.0549,0.0003467,15.40765741,441.482905938391,446.2132703985262,1 44961U 20001AZ  26021.35631157  .00027250  00000+0  66324-3 0  9998,2 44961  53.0549 153.1863 0003467 317.1114  42.9620 15.40765741333368
STARLINK-1090,44968,53.0555,0.0001414,15.06392206,546.2561978649328,548.2146931925281,1 44968U 20001BG  26021.52123650 -.00001251  00000+0 -65087-4 0  9999,2 44968  53.0555 158.3659 0001414  96.9250 263.1900 15.06392206333301
STARLINK-1132,45044,53.1584,0.0001455,15.36498917,455.47748364387735,457.4663548393755,1 45044U 20006A   26021.58335647  .00042789  00000+0  11881-2 0  9997,2 45044  53.1584 116.1288 0001455  80.5297 115.0953 15.36498917  5831
STARLINK-1131,45047,53.0564,0.0001388,15.06377609,546.3189360732904,548.2414318835636,1 45047U 20006D   26021.52315620 -.00000863  00000+0 -39060-4 0  9993,2 45047  53.0564 138.8946 0001388  91.8375 268.2773 15.06377609329347
STARLINK-1134,45048,53.036,0.0004254,15.37347925,451.04901774213886,456.8617619474189,1 45048U 20006E   26021.46767269  .00042178  00000+0  11395-2 0  9999,2 45048  53.0360 101.8394 0004254  43.9877 316.1463 15.37347925329867
STARLINK-1156,45054,53.0542,0.0001854,15.06362643,546.042073278797,548.6100349792678,1 45054U 20006L   26021.49360792 -.00010361  00000+0 -67836-3 0  9992,2 45054  53.0542 138.4932 0001854  97.7723 262.3477 15.06362643329340
STARLINK-1159,45057,53.0486,0.000377,15.66194323,367.26211229196633,372.3500613794413,1 45057U 20006P   26021.58335647  .00097655  00000+0  92456-3 0  9991,2 45057  53.0486 109.1411 0003770 292.6437  50.7979 15.66194323  5671
STARLINK-1166,45060,53.0539,7.69e-05,15.38709308,449.39989215927926,450.4500480902843,1 45060U 20006S   26021.58335647  .00111004  00000+0  28277-2 0  9999,2 45060  53.0539 136.0591 0000769  93.3037 217.1733 15.38709308  5838
STARLINK-1169,45061,53.0559,0.0001263,15.06428061,546.2508956889542,548.0002170106891,1 45061U 20006T   26021.52673443  .00003581  00000+0  25895-3 0  9997,2 45061  53.0559 138.3487 0001263  52.5496 307.5608 15.06428061329356
STARLINK-1171,45062,53.0506,0.0007303,15.47661318,418.60223733425846,428.53680988264114,1 45062U 20006U   26021.53476398  .00081782  00000+0  15483-2 0  9999,2 45062  53.0506 116.7191 0007303 217.0641 142.9862 15.47661318329668
STARLINK-1133,45064,53.1541,0.0005678,15.30806891,469.5132962235475,477.2939057300173,1 45064U 20006W   26021.50377798  .01068025  00000+0  32402-1 0  9997,2 45064  53.1541 116.9338 0005678 303.7912  56.2547 15.30806891329657
STARLINK-1167,45071,53.1597,0.0001543,15.2934512,476.7109096856175,478.8266422080742,1 45071U 20006AD  26021.44492945 -.00003600  00000+0 -11251-3 0  9990,2 45071  53.1597 117.0208 0001543 107.2892 252.8277 15.29345120329649
STARLINK-1168,45072,53.1611,0.000118,15.29339983,476.9751297450257,478.5931271313375,1 45072U 20006AE  26021.52008001 -.00003243  00000+0 -10016-3 0  9997,2 45072  53.1611 116.7338 0001180 102.3743 257.7390 15.29339983329656
STARLINK-1172,45074,53.1541,0.000133,15.29348166,476.8478384228638,478.67150693779604,1 45074U 20006AG  26021.48357821  .00009398  00000+0  33767-3 0  9994,2 45074  53.1541 117.0806 0001330  57.0127 303.1001 15.29348166329640
STARLINK-1153,45080,53.1579,0.0001069,15.29335323,477.0651559793014,478.5309548941541,1 45080U 20006AN  26021.49468609  .00011138  00000+0  39798-3 0  9994,2 45080  53.1579 116.7064 0001069 120.1106 240.0000 15.29335323329658
STARLINK-1151,45081,53.0527,0.0007248,15.49321475,413.78344240737533,423.636151524257,1 45081U 20006AP  26021.47847433  .00031791  00000+0  57656-3 0  9999,2 45081  53.0527 108.2373 0007248 337.6591  22.4100 15.49321475329779
STARLINK-1185,45087,53.0543,0.0001277,15.06374904,546.404097798516,548.1728514647357,1 45087U 20006AV  26021.50467063 -.00001840  00000+0 -10474-3 0  9997,2 45087  53.0543  98.4444 0001277  97.0570 263.0564 15.06374904329913
STARLINK-1183,45088,53.0542,0.0001912,15.06363632,545.998874906476,548.6471708192184,1 45088U 20006AW  26021.46044450 -.00007985  00000+0 -51826-3 0  9996,2 45088  53.0542  98.6434 0001912  87.7591 272.3617 15.06363632329906
STARLINK-1152,45096,53.0411,0.0003756,15.3259606,465.49875308381525,470.6416239238197,1 45096U 20006BE  26021.40743081  .00105158  00000+0  32597-2 0  9997,2 45096  53.0411  68.4828 0003756  52.9190 307.2153 15.32596060330322
